{"type": "FeatureCollection", "features": [ {"type": "Feature", "properties": {"norad_id": 66486, "name": "STARLINK-34844", "group": "last-30-days", "lat": -18.912285298041795, "lon": 165.3422013535404, "alt_km": 345.77408036138604, "timestamp": "2025-12-02T07:10:07.866761+00:00", "meta": {"OBJECT_NAME": "STARLINK-34844", "OBJECT_ID": "2025-263B", "EPOCH": "2025-12-01T20:00:01.999008", "MEAN_MOTION": 15.75013178, "ECCENTRICITY": 0.0001912, "INCLINATION": 42.9991, "RA_OF_ASC_NODE": 189.7393, "ARG_OF_PERICENTER": 270.6367, "MEAN_ANOMALY": 299.2787, "EPHEMERIS_TYPE": 0, "CLASSIFICATION_TYPE": "U", "NORAD_CAT_ID": 66486, "ELEMENT_SET_NO": 999, "REV_AT_EPOCH": 383, "BSTAR": -3.606e-05, "MEAN_MOTION_DOT": -6.007e-05, "MEAN_MOTION_DDOT": 0}, "tle": {"line1": "1 66486U 25263B   25335.83335647 -.00006007  00000+0 -36060-4 0  9998", "line2": "2 66486  42.9991 189.7393 0001912 270.6367 299.2787 15.75013178  3836"}}, "geometry": {"type": "Point", "coordinates": [165.3422013535404, -18.912285298041795]}}, {"type": "Feature", "properties": {"norad_id": 66487, "name": "STARLINK-34733", "group": "last-30-days", "lat": -17.697421298652124, "lon": 166.88318419036182, "alt_km": 345.85777363736906, "timestamp": "2025-12-02T07:10:07.866771+00:00", "meta": {"OBJECT_NAME": "STARLINK-34733", "OBJECT_ID": "2025-263C", "EPOCH": "2025-12-01T14:00:01.999872", "MEAN_MOTION": 15.75048056, "ECCENTRICITY": 0.00016418, "INCLINATION": 42.9993, "RA_OF_ASC_NODE": 191.2499, "ARG_OF_PERICENTER": 263.4131, "MEAN_ANOMALY": 329.1096, "EPHEMERIS_TYPE": 0, "CLASSIFICATION_TYPE": "U", "NORAD_CAT_ID": 66487, "ELEMENT_SET_NO": 999, "REV_AT_EPOCH": 384, "BSTAR": -0.00013820778, "MEAN_MOTION_DOT": -0.00021661, "MEAN_MOTION_DDOT": 0}, "tle": {"line1": "1 66487U 25263C   25335.58335648 -.00021661  00000+0 -13821-3 0  9994", "line2": "2 66487  42.9993 191.2499 0001641 263.4131 329.1096 15.75048056  3842"}}, "geometry": {"type": "Point", "coordinates": [166.88318419036182, -17.697421298652124]}}, {"type": "Feature", "properties": {"norad_id": 66488, "name": "STARLINK-35515", "group": "last-30-days", "lat": -16.4461460088341, "lon": 168.43680075897956, "alt_km": 345.70091242736817, "timestamp": "2025-12-02T07:10:07.866781+00:00", "meta": {"OBJECT_NAME": "STARLINK-35515", "OBJECT_ID": "2025-263D", "EPOCH": "2025-12-01T20:00:01.999008", "MEAN_MOTION": 15.75079921, "ECCENTRICITY": 0.0001497, "INCLINATION": 42.999, "RA_OF_ASC_NODE": 189.7301, "ARG_OF_PERICENTER": 270.5864, "MEAN_ANOMALY": 303.1141, "EPHEMERIS_TYPE": 0, "CLASSIFICATION_TYPE": "U", "NORAD_CAT_ID": 66488, "ELEMENT_SET_NO": 999, "REV_AT_EPOCH": 388, "BSTAR": -0.00037884, "MEAN_MOTION_DOT": -0.00058373, "MEAN_MOTION_DDOT": 0}, "tle": {"line1": "1 66488U 25263D   25335.83335647 -.00058373  00000+0 -37884-3 0  9997", "line2": "2 66488  42.9990 189.7301 0001497 270.5864 303.1141 15.75079921  3887"}}, "geometry": {"type": "Point", "coordinates": [168.43680075897956, -16.4461460088341]}}, {"type": "Feature", "properties": {"norad_id": 66489, "name": "STARLINK-35696", "group": "last-30-days", "lat": -15.20224749027276, "lon": 169.9461696750009, "alt_km": 345.5025224849287, "timestamp": "2025-12-02T07:10:07.866791+00:00", "meta": {"OBJECT_NAME": "STARLINK-35696", "OBJECT_ID": "2025-263E", "EPOCH": "2025-12-01T20:00:01.999008", "MEAN_MOTION": 15.75069463, "ECCENTRICITY": 0.0001768, "INCLINATION": 42.999, "RA_OF_ASC_NODE": 189.7254, "ARG_OF_PERICENTER": 271.217, "MEAN_ANOMALY": 304.4004, "EPHEMERIS_TYPE": 0, "CLASSIFICATION_TYPE": "U", "NORAD_CAT_ID": 66489, "ELEMENT_SET_NO": 999, "REV_AT_EPOCH": 388, "BSTAR": -0.00026001, "MEAN_MOTION_DOT": -0.00040281, "MEAN_MOTION_DDOT": 0}, "tle": {"line1": "1 66489U 25263E   25335.83335647 -.00040281  00000+0 -26001-3 0  9996", "line2": "2 66489  42.9990 189.7254 0001768 271.2170 304.4004 15.75069463  3886"}}, "geometry": {"type": "Point", "coordinates": [169.9461696750009, -15.20224749027276]}}, {"type": "Feature", "properties": {"norad_id": 66490, "name": "STARLINK-35693", "group": "last-30-days", "lat": -13.9530158324939, "lon": 171.43171362362946, "alt_km": 345.48571419576, "timestamp": "2025-12-02T07:10:07.866801+00:00", "meta": {"OBJECT_NAME": "STARLINK-35693", "OBJECT_ID": "2025-263F", "EPOCH": "2025-12-01T20:00:01.999008", "MEAN_MOTION": 15.75063446, "ECCENTRICITY": 0.0001489, "INCLINATION": 42.9992, "RA_OF_ASC_NODE": 189.7201, "ARG_OF_PERICENTER": 272.1794, "MEAN_ANOMALY": 305.3569, "EPHEMERIS_TYPE": 0, "CLASSIFICATION_TYPE": "U", "NORAD_CAT_ID": 66490, "ELEMENT_SET_NO": 999, "REV_AT_EPOCH": 388, "BSTAR": -0.00023218, "MEAN_MOTION_DOT": -0.00036028, "MEAN_MOTION_DDOT": 0}, "tle": {"line1": "1 66490U 25263F   25335.83335647 -.00036028  00000+0 -23218-3 0  9999", "line2": "2 66490  42.9992 189.7201 0001489 272.1794 305.3569 15.75063446  3885"}}, "geometry": {"type": "Point", "coordinates": [171.43171362362946, -13.9530158324939]}}, {"type": "Feature", "properties": {"norad_id": 66491, "name": "STARLINK-35663", "group": "last-30-days", "lat": -11.414842623543802, "lon": 174.37210647965856, "alt_km": 345.1566502825699, "timestamp": "2025-12-02T07:10:07.866813+00:00", "meta": {"OBJECT_NAME": "STARLINK-35663", "OBJECT_ID": "2025-263G", "EPOCH": "2025-12-01T20:00:01.999008", "MEAN_MOTION": 15.75048309, "ECCENTRICITY": 0.0002126, "INCLINATION": 42.9991, "RA_OF_ASC_NODE": 189.7103, "ARG_OF_PERICENTER": 268.1472, "MEAN_ANOMALY": 313.2136, "EPHEMERIS_TYPE": 0, "CLASSIFICATION_TYPE": "U", "NORAD_CAT_ID": 66491, "ELEMENT_SET_NO": 999, "REV_AT_EPOCH": 388, "BSTAR": 3.4726e-05, "MEAN_MOTION_DOT": 4.861e-05, "MEAN_MOTION_DDOT": 0}, "tle": {"line1": "1 66491U 25263G   25335.83335647  .00004861  00000+0  34726-4 0  9995", "line2": "2 66491  42.9991 189.7103 0002126 268.1472 313.2136 15.75048309  3882"}}, "geometry": {"type": "Point", "coordinates": [174.37210647965856, -11.414842623543802]}}, {"type": "Feature", "properties": {"norad_id": 66492, "name": "STARLINK-35673", "group": "last-30-days", "lat": -10.130944696371426, "lon": 175.82580919341257, "alt_km": 345.15551679124474, "timestamp": "2025-12-02T07:10:07.866826+00:00", "meta": {"OBJECT_NAME": "STARLINK-35673", "OBJECT_ID": "2025-263H", "EPOCH": "2025-12-01T20:00:01.999008", "MEAN_MOTION": 15.75055494, "ECCENTRICITY": 0.0001899, "INCLINATION": 42.9989, "RA_OF_ASC_NODE": 189.7055, "ARG_OF_PERICENTER": 266.5683, "MEAN_ANOMALY": 316.7174, "EPHEMERIS_TYPE": 0, "CLASSIFICATION_TYPE": "U", "NORAD_CAT_ID": 66492, "ELEMENT_SET_NO": 999, "REV_AT_EPOCH": 388, "BSTAR": -5.2579e-05, "MEAN_MOTION_DOT": -8.552e-05, "MEAN_MOTION_DDOT": 0}, "tle": {"line1": "1 66492U 25263H   25335.83335647 -.00008552  00000+0 -52579-4 0  9995", "line2": "2 66492  42.9989 189.7055 0001899 266.5683 316.7174 15.75055494  3881"}}, "geometry": {"type": "Point", "coordinates": [175.82580919341257, -10.130944696371426]}}, {"type": "Feature", "properties": {"norad_id": 66493, "name": "STARLINK-35597", "group": "last-30-days", "lat": -8.815662940331976, "lon": 177.29612169585963, "alt_km": 344.96178311587755, "timestamp": "2025-12-02T07:10:07.866848+00:00", "meta": {"OBJECT_NAME": "STARLINK-35597", "OBJECT_ID": "2025-263J", "EPOCH": "2025-12-01T20:00:01.999008", "MEAN_MOTION": 15.75129111, "ECCENTRICITY": 0.0001919, "INCLINATION": 42.999, "RA_OF_ASC_NODE": 189.7011, "ARG_OF_PERICENTER": 271.1123, "MEAN_ANOMALY": 314.0782, "EPHEMERIS_TYPE": 0, "CLASSIFICATION_TYPE": "U", "NORAD_CAT_ID": 66493, "ELEMENT_SET_NO": 999, "REV_AT_EPOCH": 388, "BSTAR": -0.00060953, "MEAN_MOTION_DOT": -0.00093449, "MEAN_MOTION_DDOT": 0}, "tle": {"line1": "1 66493U 25263J   25335.83335647 -.00093449  00000+0 -60953-3 0  9999", "line2": "2 66493  42.9990 189.7011 0001919 271.1123 314.0782 15.75129111  3884"}}, "geometry": {"type": "Point", "coordinates": [177.29612169585963, -8.815662940331976]}}, {"type": "Feature", "properties": {"norad_id": 66494, "name": "STARLINK-35689", "group": "last-30-days", "lat": -12.682857178921484, "lon": 172.91587907654036, "alt_km": 345.47024248847265, "timestamp": "2025-12-02T07:10:07.866868+00:00", "meta": {"OBJECT_NAME": "STARLINK-35689", "OBJECT_ID": "2025-263K", "EPOCH": "2025-12-01T20:00:01.999008", "MEAN_MOTION": 15.75056473, "ECCENTRICITY": 0.0001813, "INCLINATION": 42.9989, "RA_OF_ASC_NODE": 189.716, "ARG_OF_PERICENTER": 260.7952, "MEAN_ANOMALY": 318.6513, "EPHEMERIS_TYPE": 0, "CLASSIFICATION_TYPE": "U", "NORAD_CAT_ID": 66494, "ELEMENT_SET_NO": 999, "REV_AT_EPOCH": 388, "BSTAR": -3.4289e-05, "MEAN_MOTION_DOT": -5.746e-05, "MEAN_MOTION_DDOT": 0}, "tle": {"line1": "1 66494U 25263K   25335.83335647 -.00005746  00000+0 -34289-4 0  9997", "line2": "2 66494  42.9989 189.7160 0001813 260.7952 318.6513 15.75056473  3887"}}, "geometry": {"type": "Point", "coordinates": [172.91587907654036, -12.682857178921484]}}, {"type": "Feature", "properties": {"norad_id": 66495, "name": "STARLINK-35832", "group": "last-30-days", "lat": -7.558063337968335, "lon": 178.68613149779623, "alt_km": 345.0593234773405, "timestamp": "2025-12-02T07:10:07.866906+00:00", "meta": {"OBJECT_NAME": "STARLINK-35832", "OBJECT_ID": "2025-263L", "EPOCH": "2025-12-01T20:00:01.999008", "MEAN_MOTION": 15.75054892, "ECCENTRICITY": 0.0001435, "INCLINATION": 42.999, "RA_OF_ASC_NODE": 189.6966, "ARG_OF_PERICENTER": 261.1682, "MEAN_ANOMALY": 325.9397, "EPHEMERIS_TYPE": 0, "CLASSIFICATION_TYPE": "U", "NORAD_CAT_ID": 66495, "ELEMENT_SET_NO": 999, "REV_AT_EPOCH": 388, "BSTAR": 5.4158e-05, "MEAN_MOTION_DOT": 7.855e-05, "MEAN_MOTION_DDOT": 0}, "tle": {"line1": "1 66495U 25263L   25335.83335647  .00007855  00000+0  54158-4 0  9996", "line2": "2 66495  42.9990 189.6966 0001435 261.1682 325.9397 15.75054892  3882"}}, "geometry": {"type": "Point", "coordinates": [178.68613149779623, -7.558063337968335]}}]}